STARLINK-36552          
1 67503U 26012L   26043.16670139 -.01907545  00000+0 -36456-1 0  9997
2 67503  42.9997  98.9182 0001394 276.2234  97.5177 15.50383372  4965
STARLINK-36512          
1 67504U 26012M   26043.16670139 -.00042671  00000+0 -72537-3 0  9999
2 67504  43.0001  99.0377 0001289 295.0561  29.7859 15.50584202  4966
STARLINK-36545          
1 67505U 26012N   26043.16670139 -.00028263  00000+0 -47780-3 0  9993
2 67505  42.9999  98.9925 0001309 268.4161  74.7488 15.50571746  4968
STARLINK-36553          
1 67506U 26012P   26043.16670139  .00098664  00000+0  16716-2 0  9998
2 67506  43.0001  98.8915 0000937 278.6415 105.3880 15.50493569  4967
STARLINK-36521          
1 67507U 26012Q   26043.16670139  .00097467  00000+0  16510-2 0  9991
2 67507  43.0000  98.8813 0001040 280.0855 108.1426 15.50504494  4962
STARLINK-36526          
1 67508U 26012R   26043.16670139  .00085519  00000+0  14513-2 0  9998
2 67508  42.9999  98.8681 0000918 257.2000 136.2311 15.50509341  4963
STARLINK-36541          
1 67509U 26012S   26043.17436619  .00083771  00000+0  14159-2 0  9997
2 67509  43.0001  99.9001 0000641 166.3907 193.6971 15.50631625  3843
STARLINK-36549          
1 67510U 26012T   26043.16670139  .00082012  00000+0  13904-2 0  9999
2 67510  43.0000  98.7421 0000944 278.5199 162.6501 15.50553081  4915
STARLINK-36540          
1 67511U 26012U   26043.17270698  .00083886  00000+0  14186-2 0  9990
2 67511  43.0015  99.8895 0001822 287.0451  73.0209 15.50615234  3841
STARLINK-36538          
1 67512U 26012V   26043.16670139 -.01876235  00000+0 -41263-1 0  9990
2 67512  42.9997  99.1397 0000852 273.3005   9.7072 15.46362356  4972
STARLINK-36531          
1 67513U 26012W   26043.16670139 -.01908233  00000+0 -39979-1 0  9996
2 67513  42.9994  99.0593 0001252 265.8530  49.7025 15.47799271  4918
STARLINK-36530          
1 67514U 26012X   26043.16670139 -.01941051  00000+0 -39132-1 0  9993
2 67514  42.9998  99.1015 0001260 264.0008  33.7821 15.48942562  4914
