CCSDS_OMM_VERS = 2.0
CREATION_DATE  = 
ORIGINATOR     = 

OBJECT_NAME    = STARLINK-36552
OBJECT_ID      = 2026-012L
CENTER_NAME    = EARTH
REF_FRAME      = TEME
TIME_SYSTEM    = UTC
MEAN_ELEMENT_THEORY = SGP/SGP4

EPOCH          = 2026-02-12T04:00:03.000096
MEAN_MOTION    = 15.50383372
ECCENTRICITY   = .0001394
INCLINATION    = 42.9997
RA_OF_ASC_NODE = 98.9182
ARG_OF_PERICENTER = 276.2234
MEAN_ANOMALY   = 97.5177

EPHEMERIS_TYPE = 0
CLASSIFICATION_TYPE = U
NORAD_CAT_ID   = 67503
ELEMENT_SET_NO = 999
REV_AT_EPOCH   = 496
BSTAR          = -.36456E-1
MEAN_MOTION_DOT = -.1907545E-1
MEAN_MOTION_DDOT = 0

CCSDS_OMM_VERS = 2.0
CREATION_DATE  = 
ORIGINATOR     = 

OBJECT_NAME    = STARLINK-36512
OBJECT_ID      = 2026-012M
CENTER_NAME    = EARTH
REF_FRAME      = TEME
TIME_SYSTEM    = UTC
MEAN_ELEMENT_THEORY = SGP/SGP4

EPOCH          = 2026-02-12T04:00:03.000096
MEAN_MOTION    = 15.50584202
ECCENTRICITY   = .0001289
INCLINATION    = 43.0001
RA_OF_ASC_NODE = 99.0377
ARG_OF_PERICENTER = 295.0561
MEAN_ANOMALY   = 29.7859

EPHEMERIS_TYPE = 0
CLASSIFICATION_TYPE = U
NORAD_CAT_ID   = 67504
ELEMENT_SET_NO = 999
REV_AT_EPOCH   = 496
BSTAR          = -.72537E-3
MEAN_MOTION_DOT = -.42671E-3
MEAN_MOTION_DDOT = 0

CCSDS_OMM_VERS = 2.0
CREATION_DATE  = 
ORIGINATOR     = 

OBJECT_NAME    = STARLINK-36545
OBJECT_ID      = 2026-012N
CENTER_NAME    = EARTH
REF_FRAME      = TEME
TIME_SYSTEM    = UTC
MEAN_ELEMENT_THEORY = SGP/SGP4

EPOCH          = 2026-02-12T04:00:03.000096
MEAN_MOTION    = 15.50571746
ECCENTRICITY   = .0001309
INCLINATION    = 42.9999
RA_OF_ASC_NODE = 98.9925
ARG_OF_PERICENTER = 268.4161
MEAN_ANOMALY   = 74.7488

EPHEMERIS_TYPE = 0
CLASSIFICATION_TYPE = U
NORAD_CAT_ID   = 67505
ELEMENT_SET_NO = 999
REV_AT_EPOCH   = 496
BSTAR          = -.4778E-3
MEAN_MOTION_DOT = -.28263E-3
MEAN_MOTION_DDOT = 0

CCSDS_OMM_VERS = 2.0
CREATION_DATE  = 
ORIGINATOR     = 

OBJECT_NAME    = STARLINK-36553
OBJECT_ID      = 2026-012P
CENTER_NAME    = EARTH
REF_FRAME      = TEME
TIME_SYSTEM    = UTC
MEAN_ELEMENT_THEORY = SGP/SGP4

EPOCH          = 2026-02-12T04:00:03.000096
MEAN_MOTION    = 15.50493569
ECCENTRICITY   = .0000937
INCLINATION    = 43.0001
RA_OF_ASC_NODE = 98.8915
ARG_OF_PERICENTER = 278.6415
MEAN_ANOMALY   = 105.3880

EPHEMERIS_TYPE = 0
CLASSIFICATION_TYPE = U
NORAD_CAT_ID   = 67506
ELEMENT_SET_NO = 999
REV_AT_EPOCH   = 496
BSTAR          = .16716E-2
MEAN_MOTION_DOT = .98664E-3
MEAN_MOTION_DDOT = 0

CCSDS_OMM_VERS = 2.0
CREATION_DATE  = 
ORIGINATOR     = 

OBJECT_NAME    = STARLINK-36521
OBJECT_ID      = 2026-012Q
CENTER_NAME    = EARTH
REF_FRAME      = TEME
TIME_SYSTEM    = UTC
MEAN_ELEMENT_THEORY = SGP/SGP4

EPOCH          = 2026-02-12T04:00:03.000096
MEAN_MOTION    = 15.50504494
ECCENTRICITY   = .000104
INCLINATION    = 43.0000
RA_OF_ASC_NODE = 98.8813
ARG_OF_PERICENTER = 280.0855
MEAN_ANOMALY   = 108.1426

EPHEMERIS_TYPE = 0
CLASSIFICATION_TYPE = U
NORAD_CAT_ID   = 67507
ELEMENT_SET_NO = 999
REV_AT_EPOCH   = 496
BSTAR          = .1651E-2
MEAN_MOTION_DOT = .97467E-3
MEAN_MOTION_DDOT = 0

CCSDS_OMM_VERS = 2.0
CREATION_DATE  = 
ORIGINATOR     = 

OBJECT_NAME    = STARLINK-36526
OBJECT_ID      = 2026-012R
CENTER_NAME    = EARTH
REF_FRAME      = TEME
TIME_SYSTEM    = UTC
MEAN_ELEMENT_THEORY = SGP/SGP4

EPOCH          = 2026-02-12T04:00:03.000096
MEAN_MOTION    = 15.50509341
ECCENTRICITY   = .0000918
INCLINATION    = 42.9999
RA_OF_ASC_NODE = 98.8681
ARG_OF_PERICENTER = 257.2000
MEAN_ANOMALY   = 136.2311

EPHEMERIS_TYPE = 0
CLASSIFICATION_TYPE = U
NORAD_CAT_ID   = 67508
ELEMENT_SET_NO = 999
REV_AT_EPOCH   = 496
BSTAR          = .14513E-2
MEAN_MOTION_DOT = .85519E-3
MEAN_MOTION_DDOT = 0

CCSDS_OMM_VERS = 2.0
CREATION_DATE  = 
ORIGINATOR     = 

OBJECT_NAME    = STARLINK-36541
OBJECT_ID      = 2026-012S
CENTER_NAME    = EARTH
REF_FRAME      = TEME
TIME_SYSTEM    = UTC
MEAN_ELEMENT_THEORY = SGP/SGP4

EPOCH          = 2026-02-12T04:11:05.238816
MEAN_MOTION    = 15.50631625
ECCENTRICITY   = .0000641
INCLINATION    = 43.0001
RA_OF_ASC_NODE = 99.9001
ARG_OF_PERICENTER = 166.3907
MEAN_ANOMALY   = 193.6971

EPHEMERIS_TYPE = 0
CLASSIFICATION_TYPE = U
NORAD_CAT_ID   = 67509
ELEMENT_SET_NO = 999
REV_AT_EPOCH   = 384
BSTAR          = .14159E-2
MEAN_MOTION_DOT = .83771E-3
MEAN_MOTION_DDOT = 0

CCSDS_OMM_VERS = 2.0
CREATION_DATE  = 
ORIGINATOR     = 

OBJECT_NAME    = STARLINK-36549
OBJECT_ID      = 2026-012T
CENTER_NAME    = EARTH
REF_FRAME      = TEME
TIME_SYSTEM    = UTC
MEAN_ELEMENT_THEORY = SGP/SGP4

EPOCH          = 2026-02-12T04:00:03.000096
MEAN_MOTION    = 15.50553081
ECCENTRICITY   = .0000944
INCLINATION    = 43.0000
RA_OF_ASC_NODE = 98.7421
ARG_OF_PERICENTER = 278.5199
MEAN_ANOMALY   = 162.6501

EPHEMERIS_TYPE = 0
CLASSIFICATION_TYPE = U
NORAD_CAT_ID   = 67510
ELEMENT_SET_NO = 999
REV_AT_EPOCH   = 491
BSTAR          = .13904E-2
MEAN_MOTION_DOT = .82012E-3
MEAN_MOTION_DDOT = 0

CCSDS_OMM_VERS = 2.0
CREATION_DATE  = 
ORIGINATOR     = 

OBJECT_NAME    = STARLINK-36540
OBJECT_ID      = 2026-012U
CENTER_NAME    = EARTH
REF_FRAME      = TEME
TIME_SYSTEM    = UTC
MEAN_ELEMENT_THEORY = SGP/SGP4

EPOCH          = 2026-02-12T04:08:41.883072
MEAN_MOTION    = 15.50615234
ECCENTRICITY   = .0001822
INCLINATION    = 43.0015
RA_OF_ASC_NODE = 99.8895
ARG_OF_PERICENTER = 287.0451
MEAN_ANOMALY   = 73.0209

EPHEMERIS_TYPE = 0
CLASSIFICATION_TYPE = U
NORAD_CAT_ID   = 67511
ELEMENT_SET_NO = 999
REV_AT_EPOCH   = 384
BSTAR          = .14186E-2
MEAN_MOTION_DOT = .83886E-3
MEAN_MOTION_DDOT = 0

CCSDS_OMM_VERS = 2.0
CREATION_DATE  = 
ORIGINATOR     = 

OBJECT_NAME    = STARLINK-36538
OBJECT_ID      = 2026-012V
CENTER_NAME    = EARTH
REF_FRAME      = TEME
TIME_SYSTEM    = UTC
MEAN_ELEMENT_THEORY = SGP/SGP4

EPOCH          = 2026-02-12T04:00:03.000096
MEAN_MOTION    = 15.46362356
ECCENTRICITY   = .0000852
INCLINATION    = 42.9997
RA_OF_ASC_NODE = 99.1397
ARG_OF_PERICENTER = 273.3005
MEAN_ANOMALY   = 9.7072

EPHEMERIS_TYPE = 0
CLASSIFICATION_TYPE = U
NORAD_CAT_ID   = 67512
ELEMENT_SET_NO = 999
REV_AT_EPOCH   = 497
BSTAR          = -.41263E-1
MEAN_MOTION_DOT = -.1876235E-1
MEAN_MOTION_DDOT = 0

CCSDS_OMM_VERS = 2.0
CREATION_DATE  = 
ORIGINATOR     = 

OBJECT_NAME    = STARLINK-36531
OBJECT_ID      = 2026-012W
CENTER_NAME    = EARTH
REF_FRAME      = TEME
TIME_SYSTEM    = UTC
MEAN_ELEMENT_THEORY = SGP/SGP4

EPOCH          = 2026-02-12T04:00:03.000096
MEAN_MOTION    = 15.47799271
ECCENTRICITY   = .0001252
INCLINATION    = 42.9994
RA_OF_ASC_NODE = 99.0593
ARG_OF_PERICENTER = 265.8530
MEAN_ANOMALY   = 49.7025

EPHEMERIS_TYPE = 0
CLASSIFICATION_TYPE = U
NORAD_CAT_ID   = 67513
ELEMENT_SET_NO = 999
REV_AT_EPOCH   = 491
BSTAR          = -.39979E-1
MEAN_MOTION_DOT = -.1908233E-1
MEAN_MOTION_DDOT = 0

CCSDS_OMM_VERS = 2.0
CREATION_DATE  = 
ORIGINATOR     = 

OBJECT_NAME    = STARLINK-36530
OBJECT_ID      = 2026-012X
CENTER_NAME    = EARTH
REF_FRAME      = TEME
TIME_SYSTEM    = UTC
MEAN_ELEMENT_THEORY = SGP/SGP4

EPOCH          = 2026-02-12T04:00:03.000096
MEAN_MOTION    = 15.48942562
ECCENTRICITY   = .000126
INCLINATION    = 42.9998
RA_OF_ASC_NODE = 99.1015
ARG_OF_PERICENTER = 264.0008
MEAN_ANOMALY   = 33.7821

EPHEMERIS_TYPE = 0
CLASSIFICATION_TYPE = U
NORAD_CAT_ID   = 67514
ELEMENT_SET_NO = 999
REV_AT_EPOCH   = 491
BSTAR          = -.39132E-1
MEAN_MOTION_DOT = -.1941051E-1
MEAN_MOTION_DDOT = 0

